GSAT0101 (PRN E11)      
1 37846U 11060A   21115.01541413 -.00000078  00000-0  00000-0 0  9991
2 37846  56.8111  32.7416 0004214 359.6916   0.3098  1.70475120 59084
GSAT0102 (PRN E12)      
1 37847U 11060B   21113.47289490 -.00000074  00000-0  00000-0 0  9990
2 37847  56.8113  32.7833 0005113 334.6553 204.9137  1.70475376 59066
GSAT0103 (PRN E19)      
1 38857U 12055A   21115.05692866  .00000077  00000-0  00000-0 0  9990
2 38857  55.0326 153.2053 0004994 266.6055  93.4302  1.70473683 52972
GSAT0104 (PRN E20)      
1 38858U 12055B   21105.01962709  .00000045  00000-0  00000+0 0  9996
2 38858  55.0289 153.4809 0004061 265.8558  94.1872  1.70459340 52903
GSAT0201 (PRN E18)      
1 40128U 14050A   21112.24968687 -.00000070  00000-0  00000-0 0  9990
2 40128  50.4957 349.0624 1650885 109.4468 269.0917  1.85518877 43405
GSAT0202 (PRN E14)      
1 40129U 14050B   21113.05124934 -.00000068  00000-0  00000-0 0  9997
2 40129  50.5265 348.0776 1648163 110.2839 268.1593  1.85519495 45582
GSAT0203 (PRN E26)      
1 40544U 15017A   21114.21026372 -.00000076  00000-0  00000-0 0  9997
2 40544  56.6051  32.8545 0003178 286.2501  73.7158  1.70474359 37159
GSAT0204 (PRN E22)      
1 40545U 15017B   21110.99979167 -.00000070  00000-0  00000+0 0  9991
2 40545  56.6120  32.9522 0028017 217.3514 187.7046  1.72102947 37752
GSAT0205 (PRN E24)      
1 40889U 15045A   21114.81880082 -.00000005  00000-0  00000-0 0  9994
2 40889  55.9168 273.5176 0004857  27.3538 332.6282  1.70475311 34976
GSAT0206 (PRN E30)      
1 40890U 15045B   21113.86514033  .00000001  00000-0  00000-0 0  9995
2 40890  55.9162 273.5402 0003018  25.4707 334.5063  1.70475365 34987
GSAT0209 (PRN E09)      
1 41174U 15079A   21114.62593680  .00000077  00000-0  00000+0 0  9990
2 41174  55.0493 152.9174 0005434 302.4319  57.6077  1.70473490 33319
GSAT0208 (PRN E08)      
1 41175U 15079B   21111.32609143  .00000060  00000-0  00000-0 0  9990
2 41175  55.0452 153.0072 0004620 301.6585  58.3762  1.70473736 33093
GSAT0211 (PRN E02)      
1 41549U 16030A   21112.62030860  .00000009  00000-0  00000-0 0  9994
2 41549  56.0610 273.4631 0003108 348.0464  11.9149  1.70475061 30593
GSAT0210 (PRN E01)      
1 41550U 16030B   21111.73998464  .00000013  00000-0  00000-0 0  9995
2 41550  56.0615 273.4889 0001617 312.3022  47.6560  1.70475159 30571
GSAT0207 (PRN E07)      
1 41859U 16069A   21114.33201207  .00000075  00000-0  00000-0 0  9998
2 41859  54.7077 153.2105 0005605 291.2167  68.8150  1.70473506 27358
GSAT0212 (PRN E03)      
1 41860U 16069B   21114.18543775  .00000074  00000-0  00000-0 0  9991
2 41860  54.7043 153.2130 0004200 307.9725  52.0807  1.70473552 27609
GSAT0213 (PRN E04)      
1 41861U 16069C   21114.55112568  .00000075  00000-0  00000-0 0  9996
2 41861  54.7066 153.2072 0005101 273.4532  86.5805  1.70473572 27471
GSAT0214 (PRN E05)      
1 41862U 16069D   21114.69815492  .00000076  00000-0  00000-0 0  9999
2 41862  54.7056 153.1982 0004205 277.3367  82.7079  1.70473623 27606
GSAT0215 (PRN E21)      
1 43055U 17079A   21114.60220103 -.00000004  00000-0  00000+0 0  9998
2 43055  56.0343 273.2475 0000985 313.1959  46.7534  1.70474287 20947
GSAT0216 (PRN E25)      
1 43056U 17079B   21114.89473238 -.00000006  00000-0  00000-0 0  9992
2 43056  56.0346 273.2392 0002695 288.7433  71.1831  1.70474398 20960
GSAT0217 (PRN E27)      
1 43057U 17079C   21114.52827440 -.00000003  00000-0  00000-0 0  9998
2 43057  56.0343 273.2495 0002563 312.0995  47.8366  1.70474284 20945
GSAT0218 (PRN E31)      
1 43058U 17079D   21115.33485375 -.00000008  00000-0  00000-0 0  9991
2 43058  56.0329 273.2247 0003063 281.4153  78.5037  1.70474325 20982
GSAT0221 (PRN E15)      
1 43564U 18060A   21112.30046501 -.00000072  00000-0  00000-0 0  9993
2 43564  56.9892  32.6145 0004414 298.4043  61.5530  1.70475429 17082
GSAT0222 (PRN E33)      
1 43565U 18060B   21114.28006517 -.00000076  00000-0  00000-0 0  9990
2 43565  56.9925  32.5605 0004315 307.9328  52.0296  1.70475350 17168
GSAT0219 (PRN E36)      
1 43566U 18060C   21115.08723358 -.00000078  00000-0  00000-0 0  9991
2 43566  56.9932  32.5402 0004004 311.2249  48.7428  1.70475352 17157
GSAT0220 (PRN E13)      
1 43567U 18060D   21114.72044280 -.00000077  00000-0  00000-0 0  9991
2 43567  56.9922  32.5511 0004024 305.1387  54.8254  1.70475127 17138
